start=new Date('2023-03-21T00:00:00.000Z').valueOf();
sats=[{"MEAN_ELEMENT_THEORY":"SGP4","EPOCH":"2023-03-20T15:22:31.528416","MEAN_ANOMALY":"264.7930","SEMIMAJOR_AXIS":"6941.100","OBJECT_ID":"2022-105AD","COUNTRY_CODE":"US","DECAY_DATE":null,"FILE":"3866115","PERIAPSIS":"562.211","OBJECT_NAME":"STARLINK-4617","INCLINATION":"97.6553","RA_OF_ASC_NODE":"321.9681","APOAPSIS":"563.720","ECCENTRICITY":"0.00010870","REF_FRAME":"TEME","PERIOD":"95.918","TLE_LINE2":"2 53675  97.6553 321.9681 0001087  95.3418 264.7930 15.01275135 30441","ELEMENT_SET_NO":"999","MEAN_MOTION_DDOT":"0.0000000000000","CLASSIFICATION_TYPE":"U","BSTAR":"0.00081118000000","TIME_SYSTEM":"UTC","GP_ID":"228549752","REV_AT_EPOCH":"3044","CENTER_NAME":"EARTH","OBJECT_TYPE":"PAYLOAD","LAUNCH_DATE":"2022-08-31","ARG_OF_PERICENTER":"95.3418","EPHEMERIS_TYPE":"0","TLE_LINE1":"1 53675U 22105AD  23079.64064269  .00010379  00000-0  81118-3 0  9996","MEAN_MOTION":"15.01275135","RCS_SIZE":"LARGE","NORAD_CAT_ID":"53675","SITE":"AFWTR","MEAN_MOTION_DOT":"0.00010379"},{"PERIAPSIS":"561.990","FILE":"3866115","OBJECT_NAME":"STARLINK-4621","REF_FRAME":"TEME","APOAPSIS":"563.975","ECCENTRICITY":"0.00014300","RA_OF_ASC_NODE":"321.9612","INCLINATION":"97.6557","PERIOD":"95.919","TLE_LINE2":"2 53676  97.6557 321.9612 0001430 104.1433 255.9950 15.01269562 30449","MEAN_ANOMALY":"255.9950","EPOCH":"2023-03-20T15:11:51.643968","MEAN_ELEMENT_THEORY":"SGP4","OBJECT_ID":"2022-105AE","SEMIMAJOR_AXIS":"6941.117","COUNTRY_CODE":"US","DECAY_DATE":null,"ARG_OF_PERICENTER":"104.1433","LAUNCH_DATE":"2022-08-31","OBJECT_TYPE":"PAYLOAD","MEAN_MOTION":"15.01269562","TLE_LINE1":"1 53676U 22105AE  23079.63323662  .00000024  00000-0  64786-5 0  9991","EPHEMERIS_TYPE":"0","RCS_SIZE":"LARGE","NORAD_CAT_ID":"53676","MEAN_MOTION_DOT":"0.00000024","SITE":"AFWTR","CLASSIFICATION_TYPE":"U","MEAN_MOTION_DDOT":"0.0000000000000","ELEMENT_SET_NO":"999","BSTAR":"0.00000647860000","GP_ID":"228551004","REV_AT_EPOCH":"3044","TIME_SYSTEM":"UTC","CENTER_NAME":"EARTH"},{"SEMIMAJOR_AXIS":"6941.134","OBJECT_ID":"2022-105AF","MEAN_ELEMENT_THEORY":"SGP4","MEAN_ANOMALY":"255.4026","EPOCH":"2023-03-20T15:19:51.380832","DECAY_DATE":null,"COUNTRY_CODE":"US","OBJECT_NAME":"STARLINK-4579","FILE":"3866115","PERIAPSIS":"562.104","TLE_LINE2":"2 53677  97.6550 321.9673 0001290 104.7341 255.4026 15.01264130 30443","PERIOD":"95.919","INCLINATION":"97.6550","APOAPSIS":"563.895","RA_OF_ASC_NODE":"321.9673","ECCENTRICITY":"0.00012900","REF_FRAME":"TEME","TIME_SYSTEM":"UTC","GP_ID":"228550749","REV_AT_EPOCH":"3044","MEAN_MOTION_DDOT":"0.0000000000000","BSTAR":"0.00026751000000","CLASSIFICATION_TYPE":"U","ELEMENT_SET_NO":"999","CENTER_NAME":"EARTH","EPHEMERIS_TYPE":"0","TLE_LINE1":"1 53677U 22105AF  23079.63878913  .00003379  00000-0  26751-3 0  9990","MEAN_MOTION":"15.01264130","OBJECT_TYPE":"PAYLOAD","LAUNCH_DATE":"2022-08-31","ARG_OF_PERICENTER":"104.7341","SITE":"AFWTR","MEAN_MOTION_DOT":"0.00003379","NORAD_CAT_ID":"53677","RCS_SIZE":"LARGE"},{"TIME_SYSTEM":"UTC","GP_ID":"228549502","REV_AT_EPOCH":"3044","MEAN_MOTION_DDOT":"0.0000000000000","BSTAR":"-0.00007799200000","CLASSIFICATION_TYPE":"U","ELEMENT_SET_NO":"999","CENTER_NAME":"EARTH","EPHEMERIS_TYPE":"0","MEAN_MOTION":"15.01271439","TLE_LINE1":"1 53678U 22105AG  23079.63138775 -.00001061  00000-0 -77992-4 0  9998","LAUNCH_DATE":"2022-08-31","ARG_OF_PERICENTER":"97.3088","OBJECT_TYPE":"PAYLOAD","MEAN_MOTION_DOT":"-0.00001061","SITE":"AFWTR","RCS_SIZE":"LARGE","NORAD_CAT_ID":"53678","SEMIMAJOR_AXIS":"6941.112","OBJECT_ID":"2022-105AG","MEAN_ELEMENT_THEORY":"SGP4","EPOCH":"2023-03-20T15:09:11.901600","MEAN_ANOMALY":"262.8329","DECAY_DATE":null,"COUNTRY_CODE":"US","OBJECT_NAME":"STARLINK-4418","FILE":"3866115","PERIAPSIS":"561.803","PERIOD":"95.919","TLE_LINE2":"2 53678  97.6561 321.9602 0001691  97.3088 262.8329 15.01271439 30446","INCLINATION":"97.6561","REF_FRAME":"TEME","APOAPSIS":"564.150","RA_OF_ASC_NODE":"321.9602","ECCENTRICITY":"0.00016910"},{"MEAN_MOTION_DOT":"-0.00000076","SITE":"AFWTR","NORAD_CAT_ID":"53679","RCS_SIZE":"LARGE","EPHEMERIS_TYPE":"0","MEAN_MOTION":"15.01265154","TLE_LINE1":"1 53679U 22105AH  23079.63508912 -.00000076  00000-0 -13535-5 0  9992","ARG_OF_PERICENTER":"98.3436","LAUNCH_DATE":"2022-08-31","OBJECT_TYPE":"PAYLOAD","CENTER_NAME":"EARTH","TIME_SYSTEM":"UTC","REV_AT_EPOCH":"3044","GP_ID":"228550253","CLASSIFICATION_TYPE":"U","MEAN_MOTION_DDOT":"0.0000000000000","ELEMENT_SET_NO":"999","BSTAR":"-0.00000135350000","PERIOD":"95.919","TLE_LINE2":"2 53679  97.6554 321.9630 0001541  98.3436 261.7963 15.01265154 30441","INCLINATION":"97.6554","REF_FRAME":"TEME","RA_OF_ASC_NODE":"321.9630","APOAPSIS":"564.066","ECCENTRICITY":"0.00015410","OBJECT_NAME":"STARLINK-4632","FILE":"3866115","PERIAPSIS":"561.926","DECAY_DATE":null,"COUNTRY_CODE":"US","SEMIMAJOR_AXIS":"6941.131","OBJECT_ID":"2022-105AH","MEAN_ELEMENT_THEORY":"SGP4","MEAN_ANOMALY":"261.7963","EPOCH":"2023-03-20T15:14:31.699968"},{"OBJECT_NAME":"STARLINK-4630","FILE":"3866115","PERIAPSIS":"561.799","PERIOD":"95.919","TLE_LINE2":"2 53680  97.6579 322.0252 0001702  90.7920 269.3499 15.01270354 30452","INCLINATION":"97.6579","ECCENTRICITY":"0.00017020","APOAPSIS":"564.161","RA_OF_ASC_NODE":"322.0252","REF_FRAME":"TEME","SEMIMAJOR_AXIS":"6941.115","OBJECT_ID":"2022-105AJ","MEAN_ELEMENT_THEORY":"SGP4","MEAN_ANOMALY":"269.3499","EPOCH":"2023-03-20T16:39:50.467968","DECAY_DATE":null,"COUNTRY_CODE":"US","EPHEMERIS_TYPE":"0","TLE_LINE1":"1 53680U 22105AJ  23079.69433412 -.00000185  00000-0 -98356-5 0  9997","MEAN_MOTION":"15.01270354","OBJECT_TYPE":"PAYLOAD","ARG_OF_PERICENTER":"90.7920","LAUNCH_DATE":"2022-08-31","SITE":"AFWTR","MEAN_MOTION_DOT":"-0.00000185","NORAD_CAT_ID":"53680","RCS_SIZE":"LARGE","TIME_SYSTEM":"UTC","REV_AT_EPOCH":"3045","GP_ID":"228550504","ELEMENT_SET_NO":"999","MEAN_MOTION_DDOT":"0.0000000000000","CLASSIFICATION_TYPE":"U","BSTAR":"-0.00000983560000","CENTER_NAME":"EARTH"},{"OBJECT_ID":"2022-105AK","SEMIMAJOR_AXIS":"6941.167","EPOCH":"2023-03-20T16:45:31.689216","MEAN_ANOMALY":"326.9242","MEAN_ELEMENT_THEORY":"SGP4","DECAY_DATE":null,"COUNTRY_CODE":"US","OBJECT_NAME":"STARLINK-4424","PERIAPSIS":"560.938","FILE":"3866115","TLE_LINE2":"2 53681  97.6559 322.0171 0003017  33.2171 326.9242 15.01253315 30456","PERIOD":"95.920","REF_FRAME":"TEME","APOAPSIS":"565.127","RA_OF_ASC_NODE":"322.0171","ECCENTRICITY":"0.00030170","INCLINATION":"97.6559","REV_AT_EPOCH":"3045","GP_ID":"228551250","TIME_SYSTEM":"UTC","CLASSIFICATION_TYPE":"U","MEAN_MOTION_DDOT":"0.0000000000000","BSTAR":"0.00039468000000","ELEMENT_SET_NO":"999","CENTER_NAME":"EARTH","MEAN_MOTION":"15.01253315","TLE_LINE1":"1 53681U 22105AK  23079.69828344  .00005013  00000-0  39468-3 0  9990","EPHEMERIS_TYPE":"0","ARG_OF_PERICENTER":"33.2171","LAUNCH_DATE":"2022-08-31","OBJECT_TYPE":"PAYLOAD","MEAN_MOTION_DOT":"0.00005013","SITE":"AFWTR","RCS_SIZE":"LARGE","NORAD_CAT_ID":"53681"},{"SITE":"AFWTR","MEAN_MOTION_DOT":"-0.00000405","NORAD_CAT_ID":"53682","RCS_SIZE":"LARGE","TLE_LINE1":"1 53682U 22105AL  23079.62422840 -.00000405  00000-0 -26910-4 0  9996","MEAN_MOTION":"15.01264642","EPHEMERIS_TYPE":"0","OBJECT_TYPE":"PAYLOAD","LAUNCH_DATE":"2022-08-31","ARG_OF_PERICENTER":"87.8109","CENTER_NAME":"EARTH","GP_ID":"228550003","REV_AT_EPOCH":"3044","TIME_SYSTEM":"UTC","MEAN_MOTION_DDOT":"0.0000000000000","ELEMENT_SET_NO":"999","BSTAR":"-0.00002691000000","CLASSIFICATION_TYPE":"U","TLE_LINE2":"2 53682  97.6582 321.9602 0001888  87.8109 272.3331 15.01264642 30447","PERIOD":"95.919","APOAPSIS":"564.308","ECCENTRICITY":"0.00018880","RA_OF_ASC_NODE":"321.9602","REF_FRAME":"TEME","INCLINATION":"97.6582","OBJECT_NAME":"STARLINK-4438","PERIAPSIS":"561.687","FILE":"3866115","DECAY_DATE":null,"COUNTRY_CODE":"US","OBJECT_ID":"2022-105AL","SEMIMAJOR_AXIS":"6941.133","MEAN_ANOMALY":"272.3331","EPOCH":"2023-03-20T14:58:53.333760","MEAN_ELEMENT_THEORY":"SGP4"},{"OBJECT_NAME":"STARLINK-4625","PERIAPSIS":"561.485","FILE":"3866115","TLE_LINE2":"2 53683  97.6570 322.0262 0002127 102.8521 257.2941 15.01276219 30455","PERIOD":"95.918","REF_FRAME":"TEME","RA_OF_ASC_NODE":"322.0262","APOAPSIS":"564.438","ECCENTRICITY":"0.00021270","INCLINATION":"97.6570","OBJECT_ID":"2022-105AM","SEMIMAJOR_AXIS":"6941.097","EPOCH":"2023-03-20T16:42:30.225888","MEAN_ANOMALY":"257.2941","MEAN_ELEMENT_THEORY":"SGP4","DECAY_DATE":null,"COUNTRY_CODE":"US","MEAN_MOTION":"15.01276219","TLE_LINE1":"1 53683U 22105AM  23079.69618317  .00009632  00000-0  75315-3 0  9991","EPHEMERIS_TYPE":"0","LAUNCH_DATE":"2022-08-31","ARG_OF_PERICENTER":"102.8521","OBJECT_TYPE":"PAYLOAD","MEAN_MOTION_DOT":"0.00009632","SITE":"AFWTR","NORAD_CAT_ID":"53683","RCS_SIZE":"LARGE","GP_ID":"228549753","REV_AT_EPOCH":"3045","TIME_SYSTEM":"UTC","MEAN_MOTION_DDOT":"0.0000000000000","BSTAR":"0.00075315000000","CLASSIFICATION_TYPE":"U","ELEMENT_SET_NO":"999","CENTER_NAME":"EARTH"},{"OBJECT_TYPE":"PAYLOAD","LAUNCH_DATE":"2022-08-31","ARG_OF_PERICENTER":"90.2026","EPHEMERIS_TYPE":"0","TLE_LINE1":"1 53684U 22105AN  23079.67606759  .00000252  00000-0  24195-4 0  9997","MEAN_MOTION":"15.01271398","RCS_SIZE":"LARGE","NORAD_CAT_ID":"53684","SITE":"AFWTR","MEAN_MOTION_DOT":"0.00000252","MEAN_MOTION_DDOT":"0.0000000000000","ELEMENT_SET_NO":"999","CLASSIFICATION_TYPE":"U","BSTAR":"0.00002419500000","TIME_SYSTEM":"UTC","REV_AT_EPOCH":"3044","GP_ID":"228551005","CENTER_NAME":"EARTH","FILE":"3866115","PERIAPSIS":"559.792","OBJECT_NAME":"STARLINK-4624","INCLINATION":"97.6555","APOAPSIS":"566.161","RA_OF_ASC_NODE":"322.0219","ECCENTRICITY":"0.00045880","REF_FRAME":"TEME","TLE_LINE2":"2 53684  97.6555 322.0219 0004588  90.2026 269.9724 15.01271398 30445","PERIOD":"95.919","MEAN_ELEMENT_THEORY":"SGP4","MEAN_ANOMALY":"269.9724","EPOCH":"2023-03-20T16:13:32.239776","SEMIMAJOR_AXIS":"6941.112","OBJECT_ID":"2022-105AN","COUNTRY_CODE":"US","DECAY_DATE":null}];
